NORAD_CAT_ID,OBJECT_NAME,OBJECT_TYPE,EPOCH,MEAN_MOTION,ECCENTRICITY,INCLINATION,RA_OF_ASC_NODE,ARG_OF_PERICENTER,MEAN_ANOMALY,BSTAR,MEAN_MOTION_DOT,MEAN_MOTION_DDOT,TLE_LINE0,TLE_LINE1,TLE_LINE2,SEMIMAJOR_AXIS,PERIOD,APOGEE,PERIGEE,DECAYED
52110.0,STARLINK-3687,PAYLOAD,2022-08-09 12:00:00,15.08851484,0.0002552999999999,53.2135,191.8043,48.459,197.0922,-0.002868,-0.00045661,0.0,0 STARLINK-3687,1 52110U 22029Y   22221.50001157 -.00045661  00000-0 -28680-2 0  9992,2 52110  53.2135 191.8043 0002553  48.4590 197.0922 15.08851484 23280,6917.845,95.437,541.476,537.944,0.0
52110.0,STARLINK-3687,PAYLOAD,2022-08-09 14:00:01,15.08845494,0.000251,53.2136,191.4296,49.3793,289.0722,-0.0028189,-0.00044881,0.0,0 STARLINK-3687,1 52110U 22029Y   22221.58334491 -.00044881  00000-0 -28189-2 0  9997,2 52110  53.2136 191.4296 0002510  49.3793 289.0722 15.08845494  1308,6917.864000000001,95.437,541.465,537.992,0.0
52110.0,STARLINK-3687,PAYLOAD,2022-08-09 22:00:00,15.08822932,0.0002449,53.2141,189.9323,53.8387,296.1955,0.0016101,0.00025418,0.0,0 STARLINK-3687,1 52110U 22029Y   22221.91667824  .00025418  00000-0  16101-2 0  9997,2 52110  53.2141 189.9323 0002449  53.8387 296.1955 15.08822932  1306,6917.933000000001,95.439,541.492,538.1030000000002,0.0
52110.0,STARLINK-3687,PAYLOAD,2022-08-10 04:00:00,15.08838189,0.0002597,53.214,188.8114,50.7143,218.0104,-0.00051882,-8.536e-05,0.0,0 STARLINK-3687,1 52110U 22029Y   22222.16667824 -.00008536  00000-0 -51882-3 0  9995,2 52110  53.2140 188.8114 0002597  50.7143 218.0104 15.08838189 23383,6917.886,95.438,541.547,537.9540000000002,0.0
52110.0,STARLINK-3687,PAYLOAD,2022-08-10 14:00:01,15.08855919,0.0002557,53.2144,186.9402,51.0364,322.1705,-0.0017914,-0.00028699,0.0,0 STARLINK-3687,1 52110U 22029Y   22222.58334491 -.00028699  00000-0 -17914-2 0  9991,2 52110  53.2144 186.9402 0002557  51.0364 322.1705 15.08855919  1303,6917.831999999999,95.437,541.466,537.928,0.0
52110.0,STARLINK-3687,PAYLOAD,2022-08-10 22:00:00,15.08836965,0.0002524,53.2162,185.4437,52.6677,332.1432,-0.0053254,-0.00084053,0.0,0 STARLINK-3687,1 52110U 22029Y   22222.91667824 -.00084053  00000-0 -53254-2 0  9990,2 52110  53.2162 185.4437 0002524  52.6677 332.1432 15.08836965  1301,6917.89,95.438,541.501,538.009,0.0
52110.0,STARLINK-3687,PAYLOAD,2022-08-11 04:00:00,15.08845216,0.0002604,53.2148,184.3222,51.1474,252.3663,-0.0024069,-0.00038398,0.0,0 STARLINK-3687,1 52110U 22029Y   22223.16667824 -.00038398  00000-0 -24069-2 0  9991,2 52110  53.2148 184.3222 0002604  51.1474 252.3663 15.08845216 23530,6917.864000000001,95.437,541.531,537.928,0.0
52110.0,STARLINK-3687,PAYLOAD,2022-08-11 14:00:01,15.08840756,0.0002506999999999,53.2151,182.4508,51.9649,356.0262,-0.0016155,-0.00025909,0.0,0 STARLINK-3687,1 52110U 22029Y   22223.58334491 -.00025909  00000-0 -16155-2 0  9999,2 52110  53.2151 182.4508 0002507  51.9649 356.0262 15.08840756  1306,6917.878000000002,95.438,541.477,538.009,0.0
52110.0,STARLINK-3687,PAYLOAD,2022-08-11 20:00:01,15.08816341,0.000244,53.2154,181.3278,55.6289,271.0553,0.0025658,0.00040758,0.0,0 STARLINK-3687,1 52110U 22029Y   22223.83334491  .00040758  00000-0  25658-2 0  9992,2 52110  53.2154 181.3278 0002440  55.6289 271.0553 15.08816341 23630,6917.953,95.439,541.506,538.13,0.0
52110.0,STARLINK-3687,PAYLOAD,2022-08-12 14:00:01,15.08866543,0.0002467,53.2156,177.9617,54.2922,28.4838,-0.0018914,-0.00030287,0.0,0 STARLINK-3687,1 52110U 22029Y   22224.58334491 -.00030287  00000-0 -18914-2 0  9990,2 52110  53.2156 177.9617 0002467  54.2922  28.4838 15.08866543  1307,6917.799,95.436,541.371,537.9580000000002,0.0
52110.0,STARLINK-3687,PAYLOAD,2022-08-12 22:00:01,15.08870996,0.0002374,53.2166,176.4653,54.7875,39.6162,-0.0067347,-0.00105994,0.0,0 STARLINK-3687,1 52110U 22029Y   22224.91668981 -.00105994  00000-0 -67347-2 0  9993,2 52110  53.2166 176.4653 0002374  54.7875  39.6162 15.08870996 23801,6917.786,95.436,541.293,538.008,0.0
52110.0,STARLINK-3687,PAYLOAD,2022-08-13 04:00:00,15.0883425,0.0002515,53.2157,175.3443,53.127,319.9144,-0.00025957,-4.417e-05,0.0,0 STARLINK-3687,1 52110U 22029Y   22225.16667824 -.00004417  00000-0 -25957-3 0  9996,2 52110  53.2157 175.3443 0002515  53.1270 319.9144 15.08834250 23846,6917.898,95.438,541.503,538.023,0.0
52110.0,STARLINK-3687,PAYLOAD,2022-08-13 14:00:01,15.08844365,0.0002387999999999,53.2156,173.4728,55.6719,61.8551,-0.00069701,-0.00011366,0.0,0 STARLINK-3687,1 52110U 22029Y   22225.58334491 -.00011366  00000-0 -69701-3 0  9999,2 52110  53.2156 173.4728 0002388  55.6719  61.8551 15.08844365  1303,6917.8669999999975,95.437,541.384,538.08,0.0
52110.0,STARLINK-3687,PAYLOAD,2022-08-13 22:00:00,15.0886772,0.0002354,53.2157,171.9763,58.4381,70.678,-0.0033984,-0.00054012,0.0,0 STARLINK-3687,1 52110U 22029Y   22225.91667824 -.00054012  00000-0 -33984-2 0  9993,2 52110  53.2157 171.9763 0002354  58.4381  70.6780 15.08867720  1307,6917.795999999999,95.436,541.289,538.0319999999998,0.0
52110.0,STARLINK-3687,PAYLOAD,2022-08-14 06:00:02,15.08806409,0.0002463,53.2165,170.4826,52.4024,88.38799999999998,0.0013699,0.00021562,0.0,0 STARLINK-3687,1 52110U 22029Y   22226.25002315  .00021562  00000-0  13699-2 0  9992,2 52110  53.2165 170.4826 0002463  52.4024  88.3880 15.08806409 24005,6917.983,95.44,541.552,538.144,0.0
52110.0,STARLINK-3687,PAYLOAD,2022-08-14 14:00:01,15.08831686,0.0002307,53.2152,168.9838,56.5976,95.7116,-0.00010989,-2.036e-05,0.0,0 STARLINK-3687,1 52110U 22029Y   22226.58334491 -.00002036  00000-0 -10989-3 0  9998,2 52110  53.2152 168.9838 0002307  56.5976  95.7116 15.08831686  1301,6917.906,95.438,541.367,538.175,0.0
52110.0,STARLINK-3687,PAYLOAD,2022-08-14 22:00:00,15.08849295,0.0002345,53.2153,167.4875,59.4957,104.393,-0.00048828,-8.053e-05,0.0,0 STARLINK-3687,1 52110U 22029Y   22226.91667824 -.00008053  00000-0 -48828-3 0  9992,2 52110  53.2153 167.4875 0002345  59.4957 104.3930 15.08849295  1306,6917.852,95.437,541.339,538.095,0.0
52110.0,STARLINK-3687,PAYLOAD,2022-08-15 14:00:01,15.08823699,0.0002264,53.2149,164.4946,56.5574,130.5315,-0.00026312,-4.472e-05,0.0,0 STARLINK-3687,1 52110U 22029Y   22227.58334491 -.00004472  00000-0 -26312-3 0  9992,2 52110  53.2149 164.4946 0002264  56.5574 130.5315 15.08823699 24202,6917.93,95.439,541.361,538.229,0.0
52110.0,STARLINK-3687,PAYLOAD,2022-08-15 22:00:00,15.08840898,0.0002334,53.215,162.9985,59.2652,139.3941,-0.00070212,-0.00011446,0.0,0 STARLINK-3687,1 52110U 22029Y   22227.91667824 -.00011446  00000-0 -70212-3 0  9995,2 52110  53.2150 162.9985 0002334  59.2652 139.3941 15.08840898  1303,6917.878000000002,95.437,541.357,538.128,0.0
52110.0,STARLINK-3687,PAYLOAD,2022-08-16 14:00:01,15.08839913,0.0002325,53.2149,160.0053,57.8638,163.9807,0.00051237,7.876e-05,0.0,0 STARLINK-3687,1 52110U 22029Y   22228.58334491  .00007876  00000-0  51237-3 0  9996,2 52110  53.2149 160.0053 0002325  57.8638 163.9807 15.08839913 24354,6917.880999999999,95.438,541.354,538.137,0.0
52110.0,STARLINK-3687,PAYLOAD,2022-08-16 22:00:00,15.08859419,0.0002354,53.2149,158.5093,59.2064,174.2325,-0.0027302,-0.00043502,0.0,0 STARLINK-3687,1 52110U 22029Y   22228.91667824 -.00043502  00000-0 -27302-2 0  9995,2 52110  53.2149 158.5093 0002354  59.2064 174.2325 15.08859419  1304,6917.821,95.436,541.314,538.058,0.0
52110.0,STARLINK-3687,PAYLOAD,2022-08-17 06:00:02,15.08807361,0.0002460999999999,53.2149,157.0142,53.8366,191.2674,0.0034039,0.00054255,0.0,0 STARLINK-3687,1 52110U 22029Y   22229.25002315  .00054255  00000-0  34039-2 0  9991,2 52110  53.2149 157.0142 0002461  53.8366 191.2674 15.08807361 24453,6917.98,95.44,541.548,538.143,0.0
52110.0,STARLINK-3687,PAYLOAD,2022-08-17 16:00:00,15.08822243,0.0002278,53.2149,155.1416,59.2588,290.2661,0.0017567999999999,0.00027769,0.0,0 STARLINK-3687,1 52110U 22029Y   22229.66667824  .00027769  00000-0  17568-2 0  9996,2 52110  53.2149 155.1416 0002278  59.2588 290.2661 15.08822243  1309,6917.935,95.439,541.376,538.224,0.0
52110.0,STARLINK-3687,PAYLOAD,2022-08-18 14:00:01,15.08833668,0.0002256999999999,53.2153,151.0266,58.7272,232.692,0.0024928,0.00039602,0.0,0 STARLINK-3687,1 52110U 22029Y   22230.58334491  .00039602  00000-0  24928-2 0  9997,2 52110  53.2153 151.0266 0002257  58.7272 232.6920 15.08833668  1304,6917.9,95.438,541.326,538.203,0.0
52110.0,STARLINK-3687,PAYLOAD,2022-08-18 22:00:00,15.08886837,0.0002262,53.2154,149.5308,58.7671,244.2475,-0.0039769,-0.0006311,0.0,0 STARLINK-3687,1 52110U 22029Y   22230.91667824 -.00063110  00000-0 -39769-2 0  9995,2 52110  53.2154 149.5308 0002262  58.7671 244.2475 15.08886837  1303,6917.736999999999,95.435,541.1669999999998,538.0369999999998,0.0
52110.0,STARLINK-3687,PAYLOAD,2022-08-19 14:00:01,15.08799499,0.0002000999999999,53.2153,146.5372,56.8394,269.4058,0.0011317999999999,0.00017751,0.0,0 STARLINK-3687,1 52110U 22029Y   22231.58334491  .00017751  00000-0  11318-2 0  9998,2 52110  53.2153 146.5372 0002001  56.8394 269.4058 15.08799499 24805,6918.004,95.44,541.253,538.485,0.0
52110.0,STARLINK-3687,PAYLOAD,2022-08-19 22:00:00,15.08820114,0.000206,53.2155,145.0417,55.9289,281.8563,-0.0013423,-0.00021576,0.0,0 STARLINK-3687,1 52110U 22029Y   22231.91667824 -.00021576  00000-0 -13423-2 0  9995,2 52110  53.2155 145.0417 0002060  55.9289 281.8563 15.08820114  1307,6917.941,95.439,541.231,538.381,0.0
52110.0,STARLINK-3687,PAYLOAD,2022-08-20 06:00:00,15.08795554,0.000215,53.2151,143.5462,51.6379,297.7078,0.0021406,0.00033903,0.0,0 STARLINK-3687,1 52110U 22029Y   22232.25001157  .00033903  00000-0  21406-2 0  9999,2 52110  53.2151 143.5462 0002150  51.6379 297.7078 15.08795554 24906,6918.016,95.44,541.369,538.394,0.0
52110.0,STARLINK-3687,PAYLOAD,2022-08-20 14:00:01,15.08800238,0.0001978,53.2152,142.0482,58.7624,302.1594,0.0031905,0.000508,0.0,0 STARLINK-3687,1 52110U 22029Y   22232.58334491  .00050800  00000-0  31905-2 0  9995,2 52110  53.2152 142.0482 0001978  58.7624 302.1594 15.08800238  1311,6918.002,95.44,541.235,538.499,0.0
